     2.10           G: GLONASS NAV DATA                     RINEX VERSION / TYPE
teqc  2015Jun23                         20220410 01:25:41UTCPGM / RUN BY / DATE
Linux 2.4.21-27.ELsmp|Opteron|gcc -static|Linux x86_64|=+   COMMENT
  2022     3    17   -0.000000000000D+00                    CORR TO SYSTEM TIME
                                                            END OF HEADER
13 22  3 18  9 15  0.0-1.960620284081D-05-0.000000000000D+00 3.306000000000D+04
    3.354598632812D+03-7.870235443115D-01 2.793967723846D-09 0.000000000000D+00
    1.704389599609D+04 2.436836242676D+00 9.313225746155D-10-2.000000000000D+00
    1.866002392578D+04-2.081425666809D+00-1.862645149231D-09 0.000000000000D+00
24 22  3 18  9 45  0.0 8.491985499859D-05 1.818989403546D-12 3.420000000000D+04
    1.476589208984D+04-6.227045059204D-01 4.656612873077D-09 0.000000000000D+00
    1.936430566406D+04-8.528842926025D-01 2.793967723846D-09 2.000000000000D+00
    7.621396972656D+03 3.380297660828D+00-9.313225746155D-10 0.000000000000D+00
 8 22  3 18  9 45  0.0-6.408337503672D-05-0.000000000000D+00 3.420000000000D+04
   -2.346097070312D+04-5.149421691895D-01-0.000000000000D+00 0.000000000000D+00
    9.087552246094D+03 3.256177902222D-01-3.725290298462D-09 6.000000000000D+00
   -4.221864257812D+03 3.509699821472D+00 9.313225746155D-10 0.000000000000D+00
 1 22  3 18  9 45  0.0 7.277354598045D-06 0.000000000000D+00 3.420000000000D+04
   -1.237561425781D+04-2.319628715515D+00 9.313225746155D-10 0.000000000000D+00
    1.312985839844D+04 8.491744995117D-01-1.862645149231D-09 1.000000000000D+00
   -1.801881201172D+04 2.212327003479D+00 1.862645149231D-09 0.000000000000D+00
12 22  3 18  9 45  0.0 1.748744398355D-05 0.000000000000D+00 3.420000000000D+04
   -6.461942382812D+03 2.019901275635D-01 3.725290298462D-09 0.000000000000D+00
    2.463421728516D+04-1.836395263672D-01-0.000000000000D+00-1.000000000000D+00
   -1.618979980469D+03-3.555722236633D+00 0.000000000000D+00 0.000000000000D+00
13 22  3 18  9 45  0.0-1.960713416338D-05-0.000000000000D+00 3.420000000000D+04
    2.389442382812D+03-3.020238876343D-01 3.725290298462D-09 0.000000000000D+00
    2.101641894531D+04 1.933474540710D+00 0.000000000000D+00-2.000000000000D+00
    1.423950732422D+04-2.798274993896D+00-1.862645149231D-09 0.000000000000D+00
23 22  3 18  9 45  0.0-3.396999090910D-05-9.094947017729D-13 3.423000000000D+04
    3.702910156250D+03-1.835224151611D+00 2.793967723846D-09 0.000000000000D+00
    1.584196972656D+04-1.978597640991D+00 0.000000000000D+00 3.000000000000D+00
    1.963574316406D+04 1.942523956299D+00-2.793967723846D-09 0.000000000000D+00
24 22  3 18 10 15  0.0 8.492264896631D-05 1.818989403546D-12 3.600000000000D+04
    1.297804150391D+04-1.369510650635D+00 3.725290298462D-09 0.000000000000D+00
    1.746601855469D+04-1.212825775146D+00 9.313225746155D-10 2.000000000000D+00
    1.333306689453D+04 2.924874305725D+00-1.862645149231D-09 0.000000000000D+00
 8 22  3 18 10 15  0.0-6.408337503672D-05-0.000000000000D+00 3.600000000000D+04
   -2.361390234375D+04 3.328151702881D-01-1.862645149231D-09 0.000000000000D+00
    9.447309082031D+03 3.500270843506D-02-3.725290298462D-09 6.000000000000D+00
    2.177148925781D+03 3.554183006287D+00-0.000000000000D+00 0.000000000000D+00
 1 22  3 18 10 15  0.0 7.277354598045D-06 0.000000000000D+00 3.600000000000D+04
   -1.592726416016D+04-1.604509353638D+00 0.000000000000D+00 0.000000000000D+00
    1.473858886719D+04 8.978481292725D-01-2.793967723846D-09 1.000000000000D+00
   -1.339084326172D+04 2.896450996399D+00 1.862645149231D-09 0.000000000000D+00
12 22  3 18 10 15  0.0 1.748744398355D-05 0.000000000000D+00 3.600000000000D+04
   -6.020037109375D+03 2.480173110962D-01 2.793967723846D-09 0.000000000000D+00
    2.350955126953D+04-1.061800003052D+00-9.313225746155D-10-1.000000000000D+00
   -7.874122070312D+03-3.349320411682D+00 9.313225746155D-10 0.000000000000D+00
13 22  3 18 10 15  0.0-1.960806548595D-05-0.000000000000D+00 3.600000000000D+04
    2.180121582031D+03 3.861808776855D-02 3.725290298462D-09 0.000000000000D+00
    2.386809130859D+04 1.204130172729D+00-0.000000000000D+00-2.000000000000D+00
    8.716701660156D+03-3.298250198364D+00-9.313225746155D-10 0.000000000000D+00
23 22  3 18 10 15  0.0-3.397278487682D-05-9.094947017729D-13 3.600000000000D+04
   -1.425410156250D+02-2.412044525146D+00 1.862645149231D-09 0.000000000000D+00
    1.231810009766D+04-1.891653060913D+00-0.000000000000D+00 3.000000000000D+00
    2.232736181641D+04 1.028750419617D+00-2.793967723846D-09 0.000000000000D+00
 2 22  3 18 10 15  0.0 5.128439515829D-04 0.000000000000D+00 3.705000000000D+04
    2.883527343750D+03-2.887628555298D+00 1.862645149231D-09 0.000000000000D+00
    1.056384570312D+04 1.287695884705D+00 0.000000000000D+00-4.000000000000D+00
   -2.299335449219D+04 2.232980728149D-01 1.862645149231D-09 0.000000000000D+00
24 22  3 18 10 45  0.0 8.492637425661D-05 1.818989403546D-12 3.780000000000D+04
    9.849711425781D+03-2.092873573303D+00 3.725290298462D-09 0.000000000000D+00
    1.515975537109D+04-1.304955482483D+00 0.000000000000D+00 2.000000000000D+00
    1.801523193359D+04 2.243846893311D+00-1.862645149231D-09 0.000000000000D+00
 2 22  3 18 10 45  0.0 5.128448829055D-04 0.000000000000D+00 3.780000000000D+04
   -2.017975585938D+03-2.516980171204D+00 1.862645149231D-09 0.000000000000D+00
    1.319284082031D+04 1.602401733398D+00-9.313225746155D-10-4.000000000000D+00
   -2.170408349609D+04 1.199673652649D+00 1.862645149231D-09 0.000000000000D+00
 1 22  3 18 10 45  0.0 7.277354598045D-06 0.000000000000D+00 3.780000000000D+04
   -1.810556933594D+04-8.125553131104D-01-9.313225746155D-10 0.000000000000D+00
    1.620909277344D+04 6.930036544800D-01-3.725290298462D-09 1.000000000000D+00
   -7.726421875000D+03 3.356440544128D+00 9.313225746155D-10 0.000000000000D+00
 8 22  3 18 10 45  0.0-6.408337503672D-05 0.000000000000D+00 3.780000000000D+04
   -2.233899218750D+04 1.054421424866D+00-2.793967723846D-09 0.000000000000D+00
    9.087615722656D+03-4.642076492310D-01-3.725290298462D-09 6.000000000000D+00
    8.408304199219D+03 3.324556350708D+00-9.313225746155D-10 0.000000000000D+00
12 22  3 18 10 45  0.0 1.748744398355D-05 0.000000000000D+00 3.780000000000D+04
   -5.711456542969D+03 5.822753906250D-02 1.862645149231D-09 0.000000000000D+00
    2.086159033203D+04-1.857266426086D+00-1.862645149231D-09-1.000000000000D+00
   -1.352070605469D+04-2.883882522583D+00 1.862645149231D-09 0.000000000000D+00
13 22  3 18 10 45  0.0-1.961365342140D-05-0.000000000000D+00 3.780000000000D+04
    2.400090332031D+03 1.666526794434D-01 3.725290298462D-09 0.000000000000D+00
    2.527022998047D+04 3.403997421265D-01-9.313225746155D-10-2.000000000000D+00
    2.519437988281D+03-3.542844772339D+00-0.000000000000D+00 0.000000000000D+00
14 22  3 18 10 45  0.0 7.550511509180D-05 0.000000000000D+00 3.801000000000D+04
    9.589858398438D+03 1.798267364502D-01 3.725290298462D-09 0.000000000000D+00
    1.459358789062D+04 2.539087295532D+00 0.000000000000D+00-7.000000000000D+00
    1.859389550781D+04-2.087184906006D+00-1.862645149231D-09 0.000000000000D+00
 2 22  3 18 11 15  0.0 5.128467455506D-04 0.000000000000D+00 3.960000000000D+04
   -6.052872070312D+03-1.939458847046D+00 0.000000000000D+00 0.000000000000D+00
    1.619861376953D+04 1.695210456848D+00-1.862645149231D-09-4.000000000000D+00
   -1.873130126953D+04 2.081690788269D+00 1.862645149231D-09 0.000000000000D+00
 8 22  3 18 11 15  0.0-6.408244371414D-05 0.000000000000D+00 3.960000000000D+04
   -1.994746191406D+04 1.561475753784D+00-3.725290298462D-09 0.000000000000D+00
    7.695473632812D+03-1.097003936768D+00-2.793967723846D-09 6.000000000000D+00
    1.399181445312D+04 2.839350700378D+00-9.313225746155D-10 0.000000000000D+00
 1 22  3 18 11 15  0.0 7.277354598045D-06 0.000000000000D+00 3.960000000000D+04
   -1.887504150391D+04-5.789184570312D-02-1.862645149231D-09 0.000000000000D+00
    1.708476562500D+04 2.419242858887D-01-3.725290298462D-09 1.000000000000D+00
   -1.463948242188D+03 3.556628227234D+00 0.000000000000D+00 0.000000000000D+00
12 22  3 18 11 15  0.0 1.748837530613D-05 0.000000000000D+00 3.960000000000D+04
   -5.924369140625D+03-3.202781677246D-01 0.000000000000D+00 0.000000000000D+00
    1.693622558594D+04-2.465641021729D+00-1.862645149231D-09-1.000000000000D+00
   -1.812174023438D+04-2.195100784302D+00 1.862645149231D-09 0.000000000000D+00
13 22  3 18 11 15  0.0-1.961458474398D-05-0.000000000000D+00 3.960000000000D+04
    2.634560058594D+03 5.368709564209D-02 2.793967723846D-09 0.000000000000D+00
    2.508028369141D+04-5.453119277954D-01-1.862645149231D-09-2.000000000000D+00
   -3.872696777344D+03-3.513420104980D+00 0.000000000000D+00 0.000000000000D+00
14 22  3 18 11 15  0.0 7.550511509180D-05 0.000000000000D+00 3.960000000000D+04
    1.017140625000D+04 4.346485137939D-01 3.725290298462D-09 0.000000000000D+00
    1.861217138672D+04 1.892186164856D+00-9.313225746155D-10-7.000000000000D+00
    1.416666748047D+04-2.800054550171D+00-1.862645149231D-09 0.000000000000D+00
24 22  3 18 11 15  0.0 8.493009954691D-05 1.818989403546D-12 3.960000000000D+04
    5.525486328125D+03-2.680532455444D+00 1.862645149231D-09 0.000000000000D+00
    1.292037988281D+04-1.144863128662D+00-9.313225746155D-10 2.000000000000D+00
    2.130687695312D+04 1.389867782593D+00-2.793967723846D-09 0.000000000000D+00
 2 22  3 18 11 45  0.0 5.128486081958D-04 9.094947017729D-13 4.140000000000D+04
   -8.935881835938D+03-1.255460739136D+00-0.000000000000D+00 0.000000000000D+00
    1.913364208984D+04 1.519603729248D+00-2.793967723846D-09-4.000000000000D+00
   -1.430774804688D+04 2.801226615906D+00 1.862645149231D-09 0.000000000000D+00
12 22  3 18 11 45  0.0 1.748837530613D-05-0.000000000000D+00 4.140000000000D+04
   -6.928678710938D+03-8.050975799561D-01-0.000000000000D+00 0.000000000000D+00
    1.214400390625D+04-2.810855865479D+00-9.313225746155D-10-1.000000000000D+00
   -2.132063525391D+04-1.336047172546D+00 2.793967723846D-09 0.000000000000D+00
